NORAD_CAT_ID,OBJECT_NAME,OBJECT_TYPE,EPOCH,MEAN_MOTION,ECCENTRICITY,INCLINATION,RA_OF_ASC_NODE,ARG_OF_PERICENTER,MEAN_ANOMALY,BSTAR,MEAN_MOTION_DOT,MEAN_MOTION_DDOT,TLE_LINE0,TLE_LINE1,TLE_LINE2,SEMIMAJOR_AXIS,PERIOD,APOGEE,PERIGEE,DECAYED
55930.0,STARLINK-5896,PAYLOAD,2023-06-23 06:00:00,15.63967905,0.000334,69.9999,267.0346,267.5397,284.9363,-0.010947,-0.00940346,0.0,0 STARLINK-5896,1 55930U 23037S   23174.25001157 -.00940346  00000-0 -10947-1 0  9995,2 55930  69.9999 267.0346 0003340 267.5397 284.9363 15.63967905 15824,6754.346,92.074,378.467,373.955,0.0
55930.0,STARLINK-5896,PAYLOAD,2023-06-24 14:00:01,15.61309351,0.0003231,69.9994,263.3261,275.7311,215.14,-0.011137,-0.00868509,0.0,0 STARLINK-5896,1 55930U 23037S   23175.58334491 -.00868509  00000-0 -11137-1 0  9994,2 55930  69.9994 263.3261 0003231 275.7311 215.1400 15.61309351 16035,6762.011,92.23,386.061,381.691,0.0
55930.0,STARLINK-5896,PAYLOAD,2023-06-25 06:00:00,15.60062284,0.0003324,69.9995,261.4776,267.5893,7.7546,-0.012957,-0.0095433,0.0,0 STARLINK-5896,1 55930U 23037S   23176.25001157 -.00954330  00000-0 -12957-1 0  9998,2 55930  69.9995 261.4776 0003324 267.5893   7.7546 15.60062284 16141,6765.614,92.304,389.728,385.23,0.0
55930.0,STARLINK-5896,PAYLOAD,2023-06-25 22:00:01,15.58708679,0.0003293,69.999,259.6323,272.7793,144.0152,-0.012698,-0.00893878,0.0,0 STARLINK-5896,1 55930U 23037S   23176.91668981 -.00893878  00000-0 -12698-1 0  9996,2 55930  69.9990 259.6323 0003293 272.7793 144.0152 15.58708679 16246,6769.53,92.384,393.625,389.166,0.0
55930.0,STARLINK-5896,PAYLOAD,2023-06-26 14:00:01,15.57398429,0.0003197,69.9994,257.7906,272.7935,282.1723,-0.012999,-0.00872822,0.0,0 STARLINK-5896,1 55930U 23037S   23177.58334491 -.00872822  00000-0 -12999-1 0  9996,2 55930  69.9994 257.7906 0003197 272.7935 282.1723 15.57398429 16343,6773.327,92.462,397.357,393.026,0.0
55930.0,STARLINK-5896,PAYLOAD,2023-06-27 06:00:00,15.56147227,0.0003464,69.9995,255.9528,266.4186,63.634,-0.014988,-0.00952332,0.0,0 STARLINK-5896,1 55930U 23037S   23178.25001157 -.00952332  00000-0 -14988-1 0  9996,2 55930  69.9995 255.9528 0003464 266.4186  63.6340 15.56147227 16455,6776.957,92.536,401.169,396.474,0.0
55930.0,STARLINK-5896,PAYLOAD,2023-06-27 22:00:00,15.54793875,0.0003418,69.9993,254.1182,272.4458,189.606,-0.014654,-0.00891427,0.0,0 STARLINK-5896,1 55930U 23037S   23178.91667824 -.00891427  00000-0 -14654-1 0  9995,2 55930  69.9993 254.1182 0003418 272.4458 189.6060 15.54793875 16551,6780.889,92.617,405.072,400.436,0.0
55930.0,STARLINK-5896,PAYLOAD,2023-06-28 14:00:01,15.53476883,0.0003538,69.9997,252.2875,273.7302,317.1718,-0.014819,-0.00861793,0.0,0 STARLINK-5896,1 55930U 23037S   23179.58334491 -.00861793  00000-0 -14819-1 0  9996,2 55930  69.9997 252.2875 0003538 273.7302 317.1718 15.53476883 16653,6784.721,92.695,408.986,404.185,0.0
55930.0,STARLINK-5896,PAYLOAD,2023-06-29 22:00:00,15.51221759,0.0003749,69.9998,248.6366,270.4188,208.8896,-0.00027845,-0.00016487,0.0,0 STARLINK-5896,1 55930U 23037S   23180.91667824 -.00016487  00000-0 -27845-3 0  9991,2 55930  69.9998 248.6366 0003749 270.4188 208.8896 15.51221759 16862,6791.295,92.83,415.706,410.614,0.0
55930.0,STARLINK-5896,PAYLOAD,2023-06-30 22:00:00,15.51217902,0.0003698,69.9998,245.9027,269.6508,32.4091,-0.00029584,-0.00017501,0.0,0 STARLINK-5896,1 55930U 23037S   23181.91667824 -.00017501  00000-0 -29584-3 0  9992,2 55930  69.9998 245.9027 0003698 269.6508  32.4091 15.51217902 17027,6791.306,92.83,415.682,410.66,0.0
55930.0,STARLINK-5896,PAYLOAD,2023-07-01 14:00:01,15.51209497,0.0003832,70.0,244.0801,271.8946,151.9702,0.00078205,0.00046019,0.0,0 STARLINK-5896,1 55930U 23037S   23182.58334491  .00046019  00000-0  78205-3 0  9995,2 55930  70.0000 244.0801 0003832 271.8946 151.9702 15.51209497 17122,6791.331,92.831,415.798,410.593,0.0
55930.0,STARLINK-5896,PAYLOAD,2023-07-02 04:00:00,15.51252394,0.0003855,69.9998,242.4853,265.8877,174.5755,-0.00047819,-0.00028184,0.0,0 STARLINK-5896,1 55930U 23037S   23183.16667824 -.00028184  00000-0 -47819-3 0  9991,2 55930  69.9998 242.4853 0003855 265.8877 174.5755 15.51252394 17218,6791.205,92.828,415.688,410.452,0.0
55930.0,STARLINK-5896,PAYLOAD,2023-07-02 23:46:25,15.51222682,0.0003801,69.9969,240.2323,268.8979,91.1772,-1.4213e-06,-2.49e-06,0.0,0 STARLINK-5896,1 55930U 23037S   23183.99057623 -.00000249  00000-0 -14213-5 0  9998,2 55930  69.9969 240.2323 0003801 268.8979  91.1772 15.51222682 17345,6791.292,92.83,415.738,410.576,0.0
55930.0,STARLINK-5896,PAYLOAD,2023-07-03 13:42:15,15.51138865,0.0003687,69.9972,238.6463,278.533,81.5438,-0.00017292,-0.00010279,0.0,0 STARLINK-5896,1 55930U 23037S   23184.57100922 -.00010279  00000-0 -17292-3 0  9996,2 55930  69.9972 238.6463 0003687 278.5330  81.5438 15.51138865 17437,6791.537,92.835,415.906,410.898,0.0
55930.0,STARLINK-5896,PAYLOAD,2023-07-03 21:26:55,15.50870064,0.0003721,69.997,237.7655,271.0232,89.0527,-0.00077139,-0.0004466,0.0,0 STARLINK-5896,1 55930U 23037S   23184.89369600 -.00044660  00000-0 -77139-3 0  9998,2 55930  69.9970 237.7655 0003721 271.0232  89.0527 15.50870064 17486,6792.321,92.851,416.714,411.659,0.0
55930.0,STARLINK-5896,PAYLOAD,2023-07-04 06:47:06,15.48552512,0.0005619,69.997,236.7164,16.6694,343.4675,-0.0061919,-0.00318372,0.0,0 STARLINK-5896,1 55930U 23037S   23185.28271977 -.00318372  00000-0 -61919-2 0  9993,2 55930  69.9970 236.7164 0005619  16.6694 343.4675 15.48552512 17543,6799.097,92.99,424.782,417.141,0.0
55930.0,STARLINK-5896,PAYLOAD,2023-07-04 22:00:01,15.48392386,0.0003331,69.9991,234.9754,267.6942,38.1752,-0.017529,-0.00850877,0.0,0 STARLINK-5896,1 55930U 23037S   23185.91668981 -.00850877  00000-0 -17529-1 0  9996,2 55930  69.9991 234.9754 0003331 267.6942  38.1752 15.48392386 17640,6799.565,93.0,423.695,419.165,0.0
55930.0,STARLINK-5896,PAYLOAD,2023-07-05 14:00:01,15.47111983,0.0003328,69.999,233.1621,276.0096,143.3908,-0.019126,-0.00896435,0.0,0 STARLINK-5896,1 55930U 23037S   23186.58335648 -.00896435  00000-0 -19126-1 0  9996,2 55930  69.9990 233.1621 0003328 276.0096 143.3908 15.47111983 17747,6803.316,93.077,427.446,422.917,0.0
55930.0,STARLINK-5896,PAYLOAD,2023-07-06 06:00:00,15.45834085,0.0003324,69.9991,231.3527,269.7158,260.0274,-0.021348,-0.0095236,0.0,0 STARLINK-5896,1 55930U 23037S   23187.25001157 -.00952360  00000-0 -21348-1 0  9995,2 55930  69.9991 231.3527 0003324 269.7158 260.0274 15.45834085 17844,6807.065,93.154,431.193,426.668,0.0
55930.0,STARLINK-5896,PAYLOAD,2023-07-06 22:00:01,15.44472461,0.0003481,69.999,229.5465,268.2091,8.8933,-0.019774,-0.00839206,0.0,0 STARLINK-5896,1 55930U 23037S   23187.91668981 -.00839206  00000-0 -19774-1 0  9995,2 55930  69.9990 229.5465 0003481 268.2091   8.8933 15.44472461 17954,6811.066,93.236,435.302,430.56,0.0
55930.0,STARLINK-5896,PAYLOAD,2023-07-07 14:00:01,15.43197659,0.0003699,69.999,227.7439,275.0559,106.1235,-0.021914,-0.00898131,0.0,0 STARLINK-5896,1 55930U 23037S   23188.58334491 -.00898131  00000-0 -21914-1 0  9996,2 55930  69.9990 227.7439 0003699 275.0559 106.1235 15.43197659 18052,6814.816,93.313,439.202,434.16,0.0
55930.0,STARLINK-5896,PAYLOAD,2023-07-08 06:00:00,15.41918346,0.0003523,69.9995,225.9446,270.3853,211.8143,-0.024367,-0.00951727,0.0,0 STARLINK-5896,1 55930U 23037S   23189.25001157 -.00951727  00000-0 -24367-1 0  9997,2 55930  69.9995 225.9446 0003523 270.3853 211.8143 15.41918346 18151,6818.585,93.39,442.852,438.048,0.0
55930.0,STARLINK-5896,PAYLOAD,2023-07-08 22:00:00,15.40560823,0.0003391,69.9994,224.149,266.5797,313.5243,-0.022582,-0.00850936,0.0,0 STARLINK-5896,1 55930U 23037S   23189.91667824 -.00850936  00000-0 -22582-1 0  9996,2 55930  69.9994 224.1490 0003391 266.5797 313.5243 15.40560823 18262,6822.59,93.472,446.769,442.141,0.0
55930.0,STARLINK-5896,PAYLOAD,2023-07-09 06:00:00,15.39955729,0.0003486,69.9996,223.2527,267.9925,359.8757,-0.025777,-0.00943795,0.0,0 STARLINK-5896,1 55930U 23037S   23190.25001157 -.00943795  00000-0 -25777-1 0  9991,2 55930  69.9996 223.2527 0003486 267.9925 359.8757 15.39955729 18318,6824.377,93.509,448.621,443.863,0.0
55930.0,STARLINK-5896,PAYLOAD,2023-07-09 22:00:00,15.38597979,0.0003494,69.9996,221.4626,267.9035,93.176,-0.023772,-0.00840487,0.0,0 STARLINK-5896,1 55930U 23037S   23190.91667824 -.00840487  00000-0 -23772-1 0  9990,2 55930  69.9996 221.4626 0003494 267.9035  93.1760 15.38597979 18410,6828.391,93.592,452.642,447.871,0.0
55930.0,STARLINK-5896,PAYLOAD,2023-07-10 06:00:00,15.37996481,0.0003488,69.9998,220.5691,270.4661,136.0299,-0.02744,-0.00942174,0.0,0 STARLINK-5896,1 55930U 23037S   23191.25001157 -.00942174  00000-0 -27440-1 0  9991,2 55930  69.9998 220.5691 0003488 270.4661 136.0299 15.37996481 18460,6830.172,93.628,454.419,449.654,0.0
55930.0,STARLINK-5896,PAYLOAD,2023-07-10 22:00:00,15.36641296,0.0003282,69.9997,218.7842,269.1881,225.8235,-0.025227,-0.00837119,0.0,0 STARLINK-5896,1 55930U 23037S   23191.91667824 -.00837119  00000-0 -25227-1 0  9996,2 55930  69.9997 218.7842 0003282 269.1881 225.8235 15.36641296 18565,6834.187,93.711,458.295,453.809,0.0
55930.0,STARLINK-5896,PAYLOAD,2023-07-11 06:00:00,15.36030503,0.0003249,70.0,217.8932,270.3795,267.7065,-0.028781,-0.00928319,0.0,0 STARLINK-5896,1 55930U 23037S   23192.25001157 -.00928319  00000-0 -28781-1 0  9996,2 55930  70.0000 217.8932 0003249 270.3795 267.7065 15.36030503 18619,6835.998,93.748,460.084,455.642,0.0
55930.0,STARLINK-5896,PAYLOAD,2023-07-12 14:00:01,15.33441835,0.0003331,69.9994,214.3375,273.1339,69.4979,-0.031895,-0.00945519,0.0,0 STARLINK-5896,1 55930U 23037S   23193.58335648 -.00945519  00000-0 -31895-1 0  9999,2 55930  69.9994 214.3375 0003331 273.1339  69.4979 15.33441835 18823,6843.69,93.906,467.834,463.275,0.0
55930.0,STARLINK-5896,PAYLOAD,2023-07-13 18:00:00,15.3112566,0.0003136,69.9992,211.238,267.996,28.2529,-0.032687,-0.0090441,0.0,0 STARLINK-5896,1 55930U 23037S   23194.75001157 -.00904410  00000-0 -32687-1 0  9999,2 55930  69.9992 211.2380 0003136 267.9960  28.2529 15.31125660 19005,6850.59,94.048,474.603,470.306,0.0
